CCSDS_OMM_VERS = 2.0
CREATION_DATE  = 
ORIGINATOR     = 

OBJECT_NAME    = SL-4 R/B
OBJECT_ID      = 2014-021B
CENTER_NAME    = EARTH
REF_FRAME      = TEME
TIME_SYSTEM    = UTC
MEAN_ELEMENT_THEORY = SGP/SGP4

EPOCH          = 2026-02-21T09:27:08.144064
MEAN_MOTION    = 15.38587290
ECCENTRICITY   = .00987534
INCLINATION    = 51.6065
RA_OF_ASC_NODE = 56.7399
ARG_OF_PERICENTER = 43.5635
MEAN_ANOMALY   = 317.3094

EPHEMERIS_TYPE = 0
CLASSIFICATION_TYPE = U
NORAD_CAT_ID   = 39679
ELEMENT_SET_NO = 999
REV_AT_EPOCH   = 65376
BSTAR          = .32010743E-3
MEAN_MOTION_DOT = .14241E-3
MEAN_MOTION_DDOT = 0

CCSDS_OMM_VERS = 2.0
CREATION_DATE  = 
ORIGINATOR     = 

OBJECT_NAME    = ALOS-2
OBJECT_ID      = 2014-029A
CENTER_NAME    = EARTH
REF_FRAME      = TEME
TIME_SYSTEM    = UTC
MEAN_ELEMENT_THEORY = SGP/SGP4

EPOCH          = 2026-02-21T21:25:39.105408
MEAN_MOTION    = 14.79471968
ECCENTRICITY   = .0001594
INCLINATION    = 97.9205
RA_OF_ASC_NODE = 151.7178
ARG_OF_PERICENTER = 100.2414
MEAN_ANOMALY   = 259.8977

EPHEMERIS_TYPE = 0
CLASSIFICATION_TYPE = U
NORAD_CAT_ID   = 39766
ELEMENT_SET_NO = 999
REV_AT_EPOCH   = 63453
BSTAR          = .2037919E-3
MEAN_MOTION_DOT = .1471E-4
MEAN_MOTION_DDOT = 0

CCSDS_OMM_VERS = 2.0
CREATION_DATE  = 
ORIGINATOR     = 

OBJECT_NAME    = YAOGAN-29
OBJECT_ID      = 2015-069A
CENTER_NAME    = EARTH
REF_FRAME      = TEME
TIME_SYSTEM    = UTC
MEAN_ELEMENT_THEORY = SGP/SGP4

EPOCH          = 2026-02-21T22:31:19.412832
MEAN_MOTION    = 14.82973769
ECCENTRICITY   = .00026836
INCLINATION    = 98.0159
RA_OF_ASC_NODE = 81.3240
ARG_OF_PERICENTER = 61.4009
MEAN_ANOMALY   = 298.7474

EPHEMERIS_TYPE = 0
CLASSIFICATION_TYPE = U
NORAD_CAT_ID   = 41038
ELEMENT_SET_NO = 999
REV_AT_EPOCH   = 55354
BSTAR          = -.16799581E-4
MEAN_MOTION_DOT = -.191E-5
MEAN_MOTION_DDOT = 0

CCSDS_OMM_VERS = 2.0
CREATION_DATE  = 
ORIGINATOR     = 

OBJECT_NAME    = ASTRO-H (HITOMI)
OBJECT_ID      = 2016-012A
CENTER_NAME    = EARTH
REF_FRAME      = TEME
TIME_SYSTEM    = UTC
MEAN_ELEMENT_THEORY = SGP/SGP4

EPOCH          = 2026-02-21T12:06:16.333344
MEAN_MOTION    = 15.09877821
ECCENTRICITY   = .00098751
INCLINATION    = 30.9992
RA_OF_ASC_NODE = 100.9840
ARG_OF_PERICENTER = 170.2595
MEAN_ANOMALY   = 189.8236

EPHEMERIS_TYPE = 0
CLASSIFICATION_TYPE = U
NORAD_CAT_ID   = 41337
ELEMENT_SET_NO = 999
REV_AT_EPOCH   = 54978
BSTAR          = .18409477E-3
MEAN_MOTION_DOT = .3152E-4
MEAN_MOTION_DDOT = 0

CCSDS_OMM_VERS = 2.0
CREATION_DATE  = 
ORIGINATOR     = 

OBJECT_NAME    = HXMT (HUIYAN)
OBJECT_ID      = 2017-034A
CENTER_NAME    = EARTH
REF_FRAME      = TEME
TIME_SYSTEM    = UTC
MEAN_ELEMENT_THEORY = SGP/SGP4

EPOCH          = 2026-02-21T14:01:01.550208
MEAN_MOTION    = 15.17244056
ECCENTRICITY   = .0030856
INCLINATION    = 43.0136
RA_OF_ASC_NODE = 106.1982
ARG_OF_PERICENTER = 134.4309
MEAN_ANOMALY   = 225.9071

EPHEMERIS_TYPE = 0
CLASSIFICATION_TYPE = U
NORAD_CAT_ID   = 42758
ELEMENT_SET_NO = 999
REV_AT_EPOCH   = 48009
BSTAR          = .24202E-3
MEAN_MOTION_DOT = .4722E-4
MEAN_MOTION_DDOT = 0

CCSDS_OMM_VERS = 2.0
CREATION_DATE  = 
ORIGINATOR     = 

OBJECT_NAME    = CZ-2C R/B
OBJECT_ID      = 2018-054D
CENTER_NAME    = EARTH
REF_FRAME      = TEME
TIME_SYSTEM    = UTC
MEAN_ELEMENT_THEORY = SGP/SGP4

EPOCH          = 2026-02-22T02:09:02.255616
MEAN_MOTION    = 16.10864526
ECCENTRICITY   = .001142
INCLINATION    = 35.1258
RA_OF_ASC_NODE = 48.0372
ARG_OF_PERICENTER = 164.8891
MEAN_ANOMALY   = 195.2196

EPHEMERIS_TYPE = 0
CLASSIFICATION_TYPE = U
NORAD_CAT_ID   = 43521
ELEMENT_SET_NO = 999
REV_AT_EPOCH   = 42639
BSTAR          = .81922E-3
MEAN_MOTION_DOT = .869156E-2
MEAN_MOTION_DDOT = .42075E-3

CCSDS_OMM_VERS = 2.0
CREATION_DATE  = 
ORIGINATOR     = 

OBJECT_NAME    = SAOCOM 1A
OBJECT_ID      = 2018-076A
CENTER_NAME    = EARTH
REF_FRAME      = TEME
TIME_SYSTEM    = UTC
MEAN_ELEMENT_THEORY = SGP/SGP4

EPOCH          = 2026-02-21T23:06:47.500128
MEAN_MOTION    = 14.82151804
ECCENTRICITY   = .00013571
INCLINATION    = 97.8877
RA_OF_ASC_NODE = 241.3579
ARG_OF_PERICENTER = 79.9134
MEAN_ANOMALY   = 280.2232

EPHEMERIS_TYPE = 0
CLASSIFICATION_TYPE = U
NORAD_CAT_ID   = 43641
ELEMENT_SET_NO = 999
REV_AT_EPOCH   = 39903
BSTAR          = .12253288E-3
MEAN_MOTION_DOT = .923E-5
MEAN_MOTION_DDOT = 0

CCSDS_OMM_VERS = 2.0
CREATION_DATE  = 
ORIGINATOR     = 

OBJECT_NAME    = H-2A R/B
OBJECT_ID      = 2018-084L
CENTER_NAME    = EARTH
REF_FRAME      = TEME
TIME_SYSTEM    = UTC
MEAN_ELEMENT_THEORY = SGP/SGP4

EPOCH          = 2026-02-21T13:32:04.307136
MEAN_MOTION    = 15.40588224
ECCENTRICITY   = .0026294
INCLINATION    = 98.8745
RA_OF_ASC_NODE = 266.5143
ARG_OF_PERICENTER = 79.4682
MEAN_ANOMALY   = 280.9520

EPHEMERIS_TYPE = 0
CLASSIFICATION_TYPE = U
NORAD_CAT_ID   = 43682
ELEMENT_SET_NO = 999
REV_AT_EPOCH   = 40329
BSTAR          = .44404E-3
MEAN_MOTION_DOT = .18193E-3
MEAN_MOTION_DDOT = 0

CCSDS_OMM_VERS = 2.0
CREATION_DATE  = 
ORIGINATOR     = 

OBJECT_NAME    = SAOCOM 1B
OBJECT_ID      = 2020-059A
CENTER_NAME    = EARTH
REF_FRAME      = TEME
TIME_SYSTEM    = UTC
MEAN_ELEMENT_THEORY = SGP/SGP4

EPOCH          = 2026-02-21T22:14:34.598112
MEAN_MOTION    = 14.82152233
ECCENTRICITY   = .00014646
INCLINATION    = 97.8874
RA_OF_ASC_NODE = 240.4201
ARG_OF_PERICENTER = 83.5017
MEAN_ANOMALY   = 276.6363

EPHEMERIS_TYPE = 0
CLASSIFICATION_TYPE = U
NORAD_CAT_ID   = 46265
ELEMENT_SET_NO = 999
REV_AT_EPOCH   = 29641
BSTAR          = .42130017E-4
MEAN_MOTION_DOT = .283E-5
MEAN_MOTION_DDOT = 0

CCSDS_OMM_VERS = 2.0
CREATION_DATE  = 
ORIGINATOR     = 

OBJECT_NAME    = CSS (TIANHE)
OBJECT_ID      = 2021-035A
CENTER_NAME    = EARTH
REF_FRAME      = TEME
TIME_SYSTEM    = UTC
MEAN_ELEMENT_THEORY = SGP/SGP4

EPOCH          = 2026-02-21T21:44:21.861312
MEAN_MOTION    = 15.59974430
ECCENTRICITY   = .00049966
INCLINATION    = 41.4670
RA_OF_ASC_NODE = 304.1498
ARG_OF_PERICENTER = 166.7243
MEAN_ANOMALY   = 193.3728

EPHEMERIS_TYPE = 0
CLASSIFICATION_TYPE = U
NORAD_CAT_ID   = 48274
ELEMENT_SET_NO = 999
REV_AT_EPOCH   = 27514
BSTAR          = .18817257E-3
MEAN_MOTION_DOT = .15335E-3
MEAN_MOTION_DDOT = 0

CCSDS_OMM_VERS = 2.0
CREATION_DATE  = 
ORIGINATOR     = 

OBJECT_NAME    = COSMOS 2550
OBJECT_ID      = 2021-056A
CENTER_NAME    = EARTH
REF_FRAME      = TEME
TIME_SYSTEM    = UTC
MEAN_ELEMENT_THEORY = SGP/SGP4

EPOCH          = 2026-02-21T20:49:13.046304
MEAN_MOTION    = 15.33831385
ECCENTRICITY   = .0008383
INCLINATION    = 67.1417
RA_OF_ASC_NODE = 88.7921
ARG_OF_PERICENTER = 269.2454
MEAN_ANOMALY   = 90.7739

EPHEMERIS_TYPE = 0
CLASSIFICATION_TYPE = U
NORAD_CAT_ID   = 48865
ELEMENT_SET_NO = 999
REV_AT_EPOCH   = 26103
BSTAR          = .98957E-7
MEAN_MOTION_DOT = -.189E-5
MEAN_MOTION_DDOT = 0

CCSDS_OMM_VERS = 2.0
CREATION_DATE  = 
ORIGINATOR     = 

OBJECT_NAME    = CZ-2C R/B
OBJECT_ID      = 2022-058K
CENTER_NAME    = EARTH
REF_FRAME      = TEME
TIME_SYSTEM    = UTC
MEAN_ELEMENT_THEORY = SGP/SGP4

EPOCH          = 2026-02-21T22:44:22.518240
MEAN_MOTION    = 15.53045858
ECCENTRICITY   = .00421311
INCLINATION    = 50.1896
RA_OF_ASC_NODE = 39.1921
ARG_OF_PERICENTER = 133.8655
MEAN_ANOMALY   = 226.5808

EPHEMERIS_TYPE = 0
CLASSIFICATION_TYPE = U
NORAD_CAT_ID   = 52794
ELEMENT_SET_NO = 999
REV_AT_EPOCH   = 20768
BSTAR          = .45150183E-3
MEAN_MOTION_DOT = .295E-3
MEAN_MOTION_DDOT = 0

