SL-4 R/B                
1 39679U 14021B   26052.39384426  .00014241  00000+0  32011-3 0  9997
2 39679  51.6065  56.7399 0098753  43.5635 317.3094 15.38587290653768
ALOS-2                  
1 39766U 14029A   26052.89281372  .00001471  00000+0  20379-3 0  9998
2 39766  97.9205 151.7178 0001594 100.2414 259.8977 14.79471968634530
YAOGAN-29               
1 41038U 15069A   26052.93841913 -.00000191  00000+0 -16800-4 0  9991
2 41038  98.0159  81.3240 0002683  61.4009 298.7474 14.82973769553546
ASTRO-H (HITOMI)        
1 41337U 16012A   26052.50435571  .00003152  00000+0  18409-3 0  9998
2 41337  30.9992 100.9840 0009875 170.2595 189.8236 15.09877821549780
HXMT (HUIYAN)           
1 42758U 17034A   26052.58404572  .00004722  00000+0  24202-3 0  9998
2 42758  43.0136 106.1982 0030856 134.4309 225.9071 15.17244056480090
CZ-2C R/B               
1 43521U 18054D   26053.08960944  .00869156  42075-3  81922-3 0  9990
2 43521  35.1258  48.0372 0011420 164.8891 195.2196 16.10864526426396
SAOCOM 1A               
1 43641U 18076A   26052.96304977  .00000923  00000+0  12253-3 0  9999
2 43641  97.8877 241.3579 0001357  79.9134 280.2232 14.82151804399033
H-2A R/B                
1 43682U 18084L   26052.56393874  .00018193  00000+0  44404-3 0  9994
2 43682  98.8745 266.5143 0026294  79.4682 280.9520 15.40588224403295
SAOCOM 1B               
1 46265U 20059A   26052.92678933  .00000283  00000+0  42130-4 0  9997
2 46265  97.8874 240.4201 0001464  83.5017 276.6363 14.82152233296416
CSS (TIANHE)            
1 48274U 21035A   26052.90580858  .00015335  00000+0  18817-3 0  9998
2 48274  41.4670 304.1498 0004996 166.7243 193.3728 15.59974430275144
COSMOS 2550             
1 48865U 21056A   26052.86751211 -.00000189  00000+0  98957-7 0  9994
2 48865  67.1417  88.7921 0008383 269.2454  90.7739 15.33831385261035
CZ-2C R/B               
1 52794U 22058K   26052.94748285  .00029500  00000+0  45150-3 0  9999
2 52794  50.1896  39.1921 0042131 133.8655 226.5808 15.53045858207683
